[{"OBJECT_NAME":"STARLINK-37062","OBJECT_ID":"2026-042U","EPOCH":"2026-03-22T04:48:15.706656","MEAN_MOTION":15.80949281,"ECCENTRICITY":0.00017058,"INCLINATION":53.1576,"RA_OF_ASC_NODE":131.9216,"ARG_OF_PERICENTER":47.9417,"MEAN_ANOMALY":312.1751,"EPHEMERIS_TYPE":0,"CLASSIFICATION_TYPE":"U","NORAD_CAT_ID":68087,"ELEMENT_SET_NO":999,"REV_AT_EPOCH":406,"BSTAR":0.0012140436,"MEAN_MOTION_DOT":0.00246753,"MEAN_MOTION_DDOT":0},{"OBJECT_NAME":"STARLINK-37059","OBJECT_ID":"2026-042V","EPOCH":"2026-03-22T04:47:11.978880","MEAN_MOTION":15.8089134,"ECCENTRICITY":0.00010016,"INCLINATION":53.1577,"RA_OF_ASC_NODE":131.9166,"ARG_OF_PERICENTER":100.5862,"MEAN_ANOMALY":259.5274,"EPHEMERIS_TYPE":0,"CLASSIFICATION_TYPE":"U","NORAD_CAT_ID":68088,"ELEMENT_SET_NO":999,"REV_AT_EPOCH":406,"BSTAR":0.0015892722,"MEAN_MOTION_DOT":0.0032536,"MEAN_MOTION_DDOT":0},{"OBJECT_NAME":"STARLINK-37004","OBJECT_ID":"2026-042W","EPOCH":"2026-03-22T04:46:07.860576","MEAN_MOTION":15.80891906,"ECCENTRICITY":0.00012492,"INCLINATION":53.1577,"RA_OF_ASC_NODE":131.9116,"ARG_OF_PERICENTER":78.2955,"MEAN_ANOMALY":281.8208,"EPHEMERIS_TYPE":0,"CLASSIFICATION_TYPE":"U","NORAD_CAT_ID":68089,"ELEMENT_SET_NO":999,"REV_AT_EPOCH":406,"BSTAR":0.0017917062,"MEAN_MOTION_DOT":0.00368774,"MEAN_MOTION_DDOT":0},{"OBJECT_NAME":"STARLINK-36320","OBJECT_ID":"2026-042X","EPOCH":"2026-03-22T04:00:01.999584","MEAN_MOTION":15.75130248,"ECCENTRICITY":0.00010403,"INCLINATION":53.1591,"RA_OF_ASC_NODE":132.1425,"ARG_OF_PERICENTER":153.423,"MEAN_ANOMALY":348.9185,"EPHEMERIS_TYPE":0,"CLASSIFICATION_TYPE":"U","NORAD_CAT_ID":68090,"ELEMENT_SET_NO":999,"REV_AT_EPOCH":404,"BSTAR":0.0014781785,"MEAN_MOTION_DOT":0.00231148,"MEAN_MOTION_DDOT":0},{"OBJECT_NAME":"STARLINK-36324","OBJECT_ID":"2026-042Y","EPOCH":"2026-03-22T04:00:01.999584","MEAN_MOTION":15.75127363,"ECCENTRICITY":0.00019813,"INCLINATION":53.1586,"RA_OF_ASC_NODE":132.1995,"ARG_OF_PERICENTER":139.9945,"MEAN_ANOMALY":334.7358,"EPHEMERIS_TYPE":0,"CLASSIFICATION_TYPE":"U","NORAD_CAT_ID":68091,"ELEMENT_SET_NO":999,"REV_AT_EPOCH":404,"BSTAR":0.0014058194,"MEAN_MOTION_DOT":0.0021947,"MEAN_MOTION_DDOT":0},{"OBJECT_NAME":"STARLINK-36896","OBJECT_ID":"2026-042Z","EPOCH":"2026-03-22T04:00:01.999584","MEAN_MOTION":15.75243418,"ECCENTRICITY":0.00010149,"INCLINATION":53.1597,"RA_OF_ASC_NODE":132.0895,"ARG_OF_PERICENTER":89.537,"MEAN_ANOMALY":78.5399,"EPHEMERIS_TYPE":0,"CLASSIFICATION_TYPE":"U","NORAD_CAT_ID":68092,"ELEMENT_SET_NO":999,"REV_AT_EPOCH":405,"BSTAR":1.66331e-7,"MEAN_MOTION_DOT":-6.14e-6,"MEAN_MOTION_DDOT":0},{"OBJECT_NAME":"STARLINK-36251","OBJECT_ID":"2026-042AA","EPOCH":"2026-03-22T06:11:44.031264","MEAN_MOTION":15.80979263,"ECCENTRICITY":0.00018055,"INCLINATION":53.1577,"RA_OF_ASC_NODE":131.5688,"ARG_OF_PERICENTER":47.8194,"MEAN_ANOMALY":312.2982,"EPHEMERIS_TYPE":0,"CLASSIFICATION_TYPE":"U","NORAD_CAT_ID":68093,"ELEMENT_SET_NO":999,"REV_AT_EPOCH":406,"BSTAR":0.0014670286,"MEAN_MOTION_DOT":0.0030062,"MEAN_MOTION_DDOT":0},{"OBJECT_NAME":"STARLINK-36787","OBJECT_ID":"2026-042AB","EPOCH":"2026-03-22T04:00:01.999584","MEAN_MOTION":15.75223014,"ECCENTRICITY":9.152e-5,"INCLINATION":53.1592,"RA_OF_ASC_NODE":132.1459,"ARG_OF_PERICENTER":83.5462,"MEAN_ANOMALY":56.9275,"EPHEMERIS_TYPE":0,"CLASSIFICATION_TYPE":"U","NORAD_CAT_ID":68094,"ELEMENT_SET_NO":999,"REV_AT_EPOCH":404,"BSTAR":0.00022616808,"MEAN_MOTION_DOT":0.00034145,"MEAN_MOTION_DDOT":0},{"OBJECT_NAME":"STARLINK-36790","OBJECT_ID":"2026-042AC","EPOCH":"2026-03-22T06:12:48.913344","MEAN_MOTION":15.80929244,"ECCENTRICITY":0.00014432,"INCLINATION":53.1579,"RA_OF_ASC_NODE":131.574,"ARG_OF_PERICENTER":83.5825,"MEAN_ANOMALY":276.5362,"EPHEMERIS_TYPE":0,"CLASSIFICATION_TYPE":"U","NORAD_CAT_ID":68095,"ELEMENT_SET_NO":999,"REV_AT_EPOCH":406,"BSTAR":0.00079629709,"MEAN_MOTION_DOT":0.00159821,"MEAN_MOTION_DDOT":0},{"OBJECT_NAME":"STARLINK-36328","OBJECT_ID":"2026-042AD","EPOCH":"2026-03-22T06:08:29.550048","MEAN_MOTION":15.80922553,"ECCENTRICITY":0.00011963,"INCLINATION":53.158,"RA_OF_ASC_NODE":131.5534,"ARG_OF_PERICENTER":67.5472,"MEAN_ANOMALY":292.5678,"EPHEMERIS_TYPE":0,"CLASSIFICATION_TYPE":"U","NORAD_CAT_ID":68096,"ELEMENT_SET_NO":999,"REV_AT_EPOCH":406,"BSTAR":0.00069832,"MEAN_MOTION_DOT":0.00139697,"MEAN_MOTION_DDOT":0},{"OBJECT_NAME":"STARLINK-36853","OBJECT_ID":"2026-042AE","EPOCH":"2026-03-22T06:10:39.167328","MEAN_MOTION":15.80934032,"ECCENTRICITY":0.00014369,"INCLINATION":53.158,"RA_OF_ASC_NODE":131.5637,"ARG_OF_PERICENTER":89.6305,"MEAN_ANOMALY":270.4882,"EPHEMERIS_TYPE":0,"CLASSIFICATION_TYPE":"U","NORAD_CAT_ID":68097,"ELEMENT_SET_NO":999,"REV_AT_EPOCH":406,"BSTAR":0.00083936688,"MEAN_MOTION_DOT":0.00168715,"MEAN_MOTION_DDOT":0},{"OBJECT_NAME":"GLOBAL-34","OBJECT_ID":"2026-043A","EPOCH":"2026-03-22T01:27:10.483200","MEAN_MOTION":15.31680515,"ECCENTRICITY":0.00050685,"INCLINATION":42.0225,"RA_OF_ASC_NODE":4.0868,"ARG_OF_PERICENTER":5.7132,"MEAN_ANOMALY":354.3763,"EPHEMERIS_TYPE":0,"CLASSIFICATION_TYPE":"U","NORAD_CAT_ID":68098,"ELEMENT_SET_NO":999,"REV_AT_EPOCH":246,"BSTAR":0.0005200244,"MEAN_MOTION_DOT":0.0001604,"MEAN_MOTION_DDOT":0},{"OBJECT_NAME":"STARLINK-37022","OBJECT_ID":"2026-044A","EPOCH":"2026-03-22T04:00:01.999584","MEAN_MOTION":15.75164773,"ECCENTRICITY":0.00017942,"INCLINATION":97.284,"RA_OF_ASC_NODE":41.916,"ARG_OF_PERICENTER":106.4715,"MEAN_ANOMALY":258.5129,"EPHEMERIS_TYPE":0,"CLASSIFICATION_TYPE":"U","NORAD_CAT_ID":68101,"ELEMENT_SET_NO":999,"REV_AT_EPOCH":340,"BSTAR":0.00010864436,"MEAN_MOTION_DOT":0.00016089,"MEAN_MOTION_DDOT":0},{"OBJECT_NAME":"STARLINK-37046","OBJECT_ID":"2026-044B","EPOCH":"2026-03-22T04:00:01.999584","MEAN_MOTION":15.75157776,"ECCENTRICITY":0.00016622,"INCLINATION":97.2839,"RA_OF_ASC_NODE":41.9187,"ARG_OF_PERICENTER":120.3497,"MEAN_ANOMALY":250.6338,"EPHEMERIS_TYPE":0,"CLASSIFICATION_TYPE":"U","NORAD_CAT_ID":68102,"ELEMENT_SET_NO":999,"REV_AT_EPOCH":340,"BSTAR":0.00023073415,"MEAN_MOTION_DOT":0.00034377,"MEAN_MOTION_DDOT":0},{"OBJECT_NAME":"STARLINK-37018","OBJECT_ID":"2026-044C","EPOCH":"2026-03-22T04:00:01.999584","MEAN_MOTION":15.75181368,"ECCENTRICITY":0.00015341,"INCLINATION":97.2841,"RA_OF_ASC_NODE":41.9222,"ARG_OF_PERICENTER":115.511,"MEAN_ANOMALY":263.465,"EPHEMERIS_TYPE":0,"CLASSIFICATION_TYPE":"U","NORAD_CAT_ID":68103,"ELEMENT_SET_NO":999,"REV_AT_EPOCH":335,"BSTAR":-7.5881803e-5,"MEAN_MOTION_DOT":-0.00011429,"MEAN_MOTION_DDOT":0},{"OBJECT_NAME":"STARLINK-37041","OBJECT_ID":"2026-044D","EPOCH":"2026-03-22T04:00:01.999584","MEAN_MOTION":15.75169483,"ECCENTRICITY":0.00013386,"INCLINATION":97.2839,"RA_OF_ASC_NODE":41.9248,"ARG_OF_PERICENTER":115.9816,"MEAN_ANOMALY":268.9995,"EPHEMERIS_TYPE":0,"CLASSIFICATION_TYPE":"U","NORAD_CAT_ID":68104,"ELEMENT_SET_NO":999,"REV_AT_EPOCH":335,"BSTAR":1.7667841e-5,"MEAN_MOTION_DOT":2.504e-5,"MEAN_MOTION_DDOT":0}]
