STARLINK-37062          
1 68087U 26042U   26081.20018179  .00246753  00000+0  12140-2 0  9994
2 68087  53.1576 131.9216 0001705  47.9417 312.1751 15.80949281  4063
STARLINK-37059          
1 68088U 26042V   26081.19944420  .00325360  00000+0  15893-2 0  9990
2 68088  53.1577 131.9166 0001001 100.5862 259.5274 15.80891340  4064
STARLINK-37004          
1 68089U 26042W   26081.19870209  .00368774  00000+0  17917-2 0  9999
2 68089  53.1577 131.9116 0001249  78.2955 281.8208 15.80891906  4061
STARLINK-36320          
1 68090U 26042X   26081.16668981  .00231148  00000+0  14782-2 0  9991
2 68090  53.1591 132.1425 0001040 153.4230 348.9185 15.75130248  4042
STARLINK-36324          
1 68091U 26042Y   26081.16668981  .00219470  00000+0  14058-2 0  9992
2 68091  53.1586 132.1995 0001981 139.9945 334.7358 15.75127363  4044
STARLINK-36896          
1 68092U 26042Z   26081.16668981 -.00000614  00000+0  16633-6 0  9997
2 68092  53.1597 132.0895 0001014  89.5370  78.5399 15.75243418  4053
STARLINK-36251          
1 68093U 26042AA  26081.25814851  .00300620  00000+0  14670-2 0  9991
2 68093  53.1577 131.5688 0001805  47.8194 312.2982 15.80979263  4062
STARLINK-36787          
1 68094U 26042AB  26081.16668981  .00034145  00000+0  22617-3 0  9990
2 68094  53.1592 132.1459 0000915  83.5462  56.9275 15.75223014  4044
STARLINK-36790          
1 68095U 26042AC  26081.25889946  .00159821  00000+0  79630-3 0  9993
2 68095  53.1579 131.5740 0001443  83.5825 276.5362 15.80929244  4069
STARLINK-36328          
1 68096U 26042AD  26081.25589757  .00139697  00000+0  69832-3 0  9993
2 68096  53.1580 131.5534 0001196  67.5472 292.5678 15.80922553  4062
STARLINK-36853          
1 68097U 26042AE  26081.25739777  .00168715  00000+0  83937-3 0  9998
2 68097  53.1580 131.5637 0001436  89.6305 270.4882 15.80934032  4061
GLOBAL-34               
1 68098U 26043A   26081.06053800  .00016040  00000+0  52002-3 0  9997
2 68098  42.0225   4.0868 0005068   5.7132 354.3763 15.31680515  2469
STARLINK-37022          
1 68101U 26044A   26081.16668981  .00016089  00000+0  10864-3 0  9999
2 68101  97.2840  41.9160 0001794 106.4715 258.5129 15.75164773  3409
STARLINK-37046          
1 68102U 26044B   26081.16668981  .00034377  00000+0  23073-3 0  9996
2 68102  97.2839  41.9187 0001662 120.3497 250.6338 15.75157776  3403
STARLINK-37018          
1 68103U 26044C   26081.16668981 -.00011429  00000+0 -75882-4 0  9998
2 68103  97.2841  41.9222 0001534 115.5110 263.4650 15.75181368  3350
STARLINK-37041          
1 68104U 26044D   26081.16668981  .00002504  00000+0  17668-4 0  9999
2 68104  97.2839  41.9248 0001338 115.9816 268.9995 15.75169483  3351
